{
    "links": {
        "self": "http://www.neowsapp.com/rest/v1/neo/3826798?api_key=iIulBulltgU6a56xZRHN4H3l9WmuAYTsLGpBGhQ2"
    },
    "id": "3826798",
    "neo_reference_id": "3826798",
    "name": "(2018 PA22)",
    "designation": "2018 PA22",
    "nasa_jpl_url": "http://ssd.jpl.nasa.gov/sbdb.cgi?sstr=3826798",
    "absolute_magnitude_h": 25.7,
    "estimated_diameter": {
        "kilometers": {
            "estimated_diameter_min": 0.0192555078,
            "estimated_diameter_max": 0.0430566244
        },
        "meters": {
            "estimated_diameter_min": 19.2555078188,
            "estimated_diameter_max": 43.0566244241
        },
        "miles": {
            "estimated_diameter_min": 0.0119648141,
            "estimated_diameter_max": 0.0267541378
        },
        "feet": {
            "estimated_diameter_min": 63.1742402722,
            "estimated_diameter_max": 141.2618956756
        }
    },
    "is_potentially_hazardous_asteroid": false,
    "close_approach_data": [
        {
            "close_approach_date": "2018-08-01",
            "close_approach_date_full": "2018-Aug-01 23:22",
            "epoch_date_close_approach": 1533165720000,
            "relative_velocity": {
                "kilometers_per_second": "5.1446842552",
                "kilometers_per_hour": "18520.8633188246",
                "miles_per_hour": "11508.1442105219"
            },
            "miss_distance": {
                "astronomical": "0.085317468",
                "lunar": "33.188495052",
                "kilometers": "12763311.48659316",
                "miles": "7930754.003819208"
            },
            "orbiting_body": "Earth"
        }
    ],
    "orbital_data": {
        "orbit_id": "3",
        "orbit_determination_date": "2018-09-06 06:53:00",
        "first_observation_date": "2018-08-12",
        "last_observation_date": "2018-09-05",
        "data_arc_in_days": 24,
        "observations_used": 16,
        "orbit_uncertainty": "7",
        "minimum_orbit_intersection": ".0836182",
        "jupiter_tisserand_invariant": "3.689",
        "epoch_osculation": "2459000.5",
        "eccentricity": ".4579229017221784",
        "semi_major_axis": "2.014171876844288",
        "inclination": "1.794459514662799",
        "ascending_node_longitude": "224.7799004173599",
        "orbital_period": "1044.102699293773",
        "perihelion_distance": "1.091836446432546",
        "perihelion_argument": "82.62754352323822",
        "aphelion_distance": "2.936507307256031",
        "perihelion_time": "2459375.593842352025",
        "mean_anomaly": "230.6700180565902",
        "mean_motion": ".3447936685189136",
        "equinox": "J2000",
        "orbit_class": {
            "orbit_class_type": "AMO",
            "orbit_class_description": "Near-Earth asteroid orbits similar to that of 1221 Amor",
            "orbit_class_range": "1.017 AU < q (perihelion) < 1.3 AU"
        }
    },
    "is_sentry_object": false
}